OBJECT_NAME,OBJECT_ID,EPOCH,MEAN_MOTION,ECCENTRICITY,INCLINATION,RA_OF_ASC_NODE,ARG_OF_PERICENTER,MEAN_ANOMALY,EPHEMERIS_TYPE,CLASSIFICATION_TYPE,NORAD_CAT_ID,ELEMENT_SET_NO,REV_AT_EPOCH,BSTAR,MEAN_MOTION_DOT,MEAN_MOTION_DDOT
STARLINK-37975,2026-147D,2026-07-13T15:32:40.147296,15.80810931,.0003784,97.2847,230.9504,82.2797,277.8901,0,U,69707,999,361,.12714E-2,.250506E-2,0
STARLINK-37972,2026-147E,2026-07-13T15:31:34.487616,15.80798628,.0001422,97.2830,230.9503,94.4669,265.6761,0,U,69708,999,361,.97013E-3,.189628E-2,0
STARLINK-37963,2026-147F,2026-07-13T15:30:29.551104,15.80917310,.0000819,97.2827,230.9521,70.1136,290.0221,0,U,69709,999,361,.12845E-2,.254379E-2,0
STARLINK-37969,2026-147G,2026-07-13T15:29:24.484128,15.80892415,.00003,97.2839,230.9541,116.2591,243.8708,0,U,69710,999,361,.10012E-2,.196716E-2,0
STARLINK-37956,2026-147H,2026-07-13T15:28:19.773984,15.80887119,.0001382,97.2835,230.9545,68.7526,291.3890,0,U,69711,999,361,.10037E-2,.197166E-2,0
STARLINK-38043,2026-147J,2026-07-13T20:00:42.557760,15.80950966,.0001159,97.2846,231.1563,33.6616,326.4725,0,U,69712,999,364,.11598E-2,.229364E-2,0
STARLINK-38020,2026-147K,2026-07-13T15:26:09.816288,15.80888834,.0001366,97.2826,230.9558,94.7582,265.3843,0,U,69713,999,361,.99326E-3,.195077E-2,0
STARLINK-38059,2026-147L,2026-07-13T15:25:04.929024,15.80881399,.000118,97.2839,230.9579,48.9161,311.2209,0,U,69714,999,361,.92065E-3,.180437E-2,0
STARLINK-38061,2026-147M,2026-07-13T19:57:27.457056,15.80847988,.0001037,97.2835,231.1610,101.7107,258.4278,0,U,69715,999,364,.96776E-3,.18959E-2,0
STARLINK-38060,2026-147N,2026-07-13T15:22:54.686208,15.80908395,.0000775,97.2831,230.9604,153.9258,206.2050,0,U,69716,999,361,.10938E-2,.215543E-2,0
STARLINK-38040,2026-147P,2026-07-13T15:21:49.208832,15.80838142,.0002185,97.2842,230.9606,182.0704,178.0556,0,U,69717,999,361,.78829E-3,.153706E-2,0
STARLINK-37989,2026-147Q,2026-07-13T15:20:45.049920,15.80932359,.0001004,97.2843,230.9622,62.5275,297.6095,0,U,69718,999,361,.19802E-2,.399174E-2,0
STARLINK-38039,2026-147R,2026-07-13T16:00:01.998720,15.80874291,.0001039,97.2835,230.9930,112.3475,47.1914,0,U,69719,999,358,-.35317E-3,-.67448E-3,0
STARLINK-38003,2026-147S,2026-07-13T15:18:35.296128,15.80910661,.0001257,97.2825,230.9630,76.8265,283.3143,0,U,69720,999,361,.16026E-2,.31974E-2,0
STARLINK-38014,2026-147T,2026-07-13T15:17:29.810112,15.80821499,.0001166,97.2833,230.9654,163.2153,196.9154,0,U,69721,999,361,.53034E-3,.102671E-2,0
STARLINK-37915,2026-147U,2026-07-13T15:16:25.755744,15.80966048,.0001838,97.2825,230.9656,54.8372,305.3068,0,U,69722,999,361,.1553E-2,.310282E-2,0
STARLINK-38007,2026-147V,2026-07-13T16:00:01.998720,15.80885459,.0001328,97.2831,230.9907,105.5472,53.2022,0,U,69723,999,358,-.51904E-3,-.9876E-3,0
STARLINK-38008,2026-147W,2026-07-13T19:47:42.707904,15.80847644,.0002268,97.2829,231.1686,171.8359,188.2946,0,U,69724,999,364,.10311E-2,.202303E-2,0
STARLINK-38021,2026-147X,2026-07-13T15:13:10.716384,15.80919950,.0001107,97.2828,230.9687,34.0505,326.0834,0,U,69725,999,361,.12952E-2,.256596E-2,0
STARLINK-38015,2026-147Y,2026-07-13T21:16:42.565728,15.80882629,.000139,97.2823,231.2376,94.0699,266.0728,0,U,69726,999,365,.95795E-3,.187928E-2,0
STARLINK-38010,2026-147Z,2026-07-13T20:11:19.190976,15.75200171,.0000939,97.2842,231.1455,79.2926,280.8445,0,U,69727,999,364,.75653E-3,.114282E-2,0
SXM-11,2026-148A,2026-07-13T16:35:08.256192,1.00268946,.0001913,0.1165,265.4725,175.4562,338.9307,0,U,69728,999,30,0,.6E-7,0
HAIYANG-2E,2026-149A,2026-07-13T15:15:28.816416,13.79314717,.0001579,99.3454,201.5813,93.5996,266.5337,0,U,69737,999,161,-.45287E-4,-.91E-6,0
STARLINK-38033,2026-150A,2026-07-13T12:02:55.813632,15.80921928,.00015582,97.2829,32.7665,118.5728,241.5697,0,U,69739,999,305,.13260466E-2,.262932E-2,0
STARLINK-38076,2026-150B,2026-07-13T20:00:01.999008,15.75170273,.0001048,97.2840,33.0815,84.3157,281.8340,0,U,69740,999,308,.15069E-3,.22386E-3,0
STARLINK-38074,2026-150C,2026-07-13T11:59:12.831648,15.80921314,.00014085,97.2824,32.7694,108.6654,251.4767,0,U,69741,999,305,.13186053E-2,.261402E-2,0
STARLINK-38041,2026-150D,2026-07-13T11:58:12.853632,15.80922469,.00012641,97.2821,32.7707,114.7439,245.3961,0,U,69742,999,305,.13647893E-2,.270874E-2,0
STARLINK-38087,2026-150E,2026-07-13T11:57:02.237184,15.80934901,.00009526,97.2821,32.7717,122.6306,237.5054,0,U,69743,999,305,.15086878E-2,.300659E-2,0
STARLINK-38078,2026-150F,2026-07-13T11:55:57.495072,15.80891311,.00013112,97.2827,32.7724,105.9616,254.1797,0,U,69744,999,305,.10893343E-2,.214463E-2,0
